start=new Date('2021-09-28T00:00:00.000Z').valueOf();
sats=[{"MEAN_MOTION_DOT":"-0.00952317","ECCENTRICITY":"0.00011400","DECAY_DATE":null,"TIME_SYSTEM":"UTC","EPHEMERIS_TYPE":"0","OBJECT_NAME":"STARLINK-2750","REF_FRAME":"TEME","NORAD_CAT_ID":"48691","MEAN_MOTION":"15.47028915","LAUNCH_DATE":"2021-05-26","ARG_OF_PERICENTER":"70.7468","EPOCH":"2021-09-27T22:00:01.999584","SEMIMAJOR_AXIS":"6803.560","TLE_LINE2":"2 48691  53.0440 168.8980 0001140  70.7468 319.3871 15.47028915  3674","MEAN_ELEMENT_THEORY":"SGP4","BSTAR":"-0.02023000000000","GP_ID":"185669331","SITE":"AFETR","TLE_LINE1":"1 48691U 21044BF  21270.91668981 -.00952317  00000-0 -20230-1 0  9996","RA_OF_ASC_NODE":"168.8980","OBJECT_TYPE":"PAYLOAD","PERIAPSIS":"424.649","CLASSIFICATION_TYPE":"U","APOAPSIS":"426.201","INCLINATION":"53.0440","RCS_SIZE":"LARGE","PERIOD":"93.082","COUNTRY_CODE":"US","ELEMENT_SET_NO":"999","OBJECT_ID":"2021-044BF","FILE":"3131463","CENTER_NAME":"EARTH","MEAN_ANOMALY":"319.3871","REV_AT_EPOCH":"367","MEAN_MOTION_DDOT":"0.0000000000000"},{"GP_ID":"185669443","SITE":"AFETR","RA_OF_ASC_NODE":"168.9735","TLE_LINE1":"1 48692U 21044BG  21270.91668981 -.00952660  00000-0 -19188-1 0  9998","OBJECT_TYPE":"PAYLOAD","APOAPSIS":"421.848","PERIAPSIS":"420.106","CLASSIFICATION_TYPE":"U","INCLINATION":"53.0449","RCS_SIZE":"LARGE","PERIOD":"92.990","COUNTRY_CODE":"US","OBJECT_ID":"2021-044BG","ELEMENT_SET_NO":"999","FILE":"3131463","CENTER_NAME":"EARTH","REV_AT_EPOCH":"367","MEAN_ANOMALY":"36.2861","MEAN_MOTION_DDOT":"0.0000000000000","MEAN_MOTION_DOT":"-0.00952660","EPHEMERIS_TYPE":"0","DECAY_DATE":null,"ECCENTRICITY":"0.00012810","TIME_SYSTEM":"UTC","OBJECT_NAME":"STARLINK-2752","NORAD_CAT_ID":"48692","MEAN_MOTION":"15.48547332","REF_FRAME":"TEME","LAUNCH_DATE":"2021-05-26","ARG_OF_PERICENTER":"62.6716","EPOCH":"2021-09-27T22:00:01.999584","SEMIMAJOR_AXIS":"6799.112","BSTAR":"-0.01918800000000","TLE_LINE2":"2 48692  53.0449 168.9735 0001281  62.6716  36.2861 15.48547332  3679","MEAN_ELEMENT_THEORY":"SGP4"},{"CLASSIFICATION_TYPE":"U","PERIAPSIS":"483.702","APOAPSIS":"485.850","SITE":"AFETR","RA_OF_ASC_NODE":"171.7516","TLE_LINE1":"1 48693U 21044BH  21270.91668981 -.00937119  00000-0 -37664-1 0  9990","OBJECT_TYPE":"PAYLOAD","GP_ID":"185669552","REV_AT_EPOCH":"365","MEAN_ANOMALY":"69.5560","MEAN_MOTION_DDOT":"0.0000000000000","FILE":"3131463","CENTER_NAME":"EARTH","COUNTRY_CODE":"US","PERIOD":"94.302","OBJECT_ID":"2021-044BH","ELEMENT_SET_NO":"999","INCLINATION":"53.0438","RCS_SIZE":"LARGE","REF_FRAME":"TEME","NORAD_CAT_ID":"48693","MEAN_MOTION":"15.27004190","DECAY_DATE":null,"ECCENTRICITY":"0.00015650","TIME_SYSTEM":"UTC","EPHEMERIS_TYPE":"0","OBJECT_NAME":"STARLINK-2618","MEAN_MOTION_DOT":"-0.00937119","MEAN_ELEMENT_THEORY":"SGP4","TLE_LINE2":"2 48693  53.0438 171.7516 0001565  50.1038  69.5560 15.27004190  3651","BSTAR":"-0.03766400000000","EPOCH":"2021-09-27T22:00:01.999584","SEMIMAJOR_AXIS":"6862.911","LAUNCH_DATE":"2021-05-26","ARG_OF_PERICENTER":"50.1038"},{"REF_FRAME":"TEME","MEAN_MOTION":"15.06420206","NORAD_CAT_ID":"48694","TIME_SYSTEM":"UTC","DECAY_DATE":null,"ECCENTRICITY":"0.00015330","EPHEMERIS_TYPE":"0","OBJECT_NAME":"STARLINK-2748","MEAN_MOTION_DOT":"-0.00027398","TLE_LINE2":"2 48694  53.0485 176.0261 0001533  74.8098 239.0597 15.06420206  3621","BSTAR":"-0.00182650000000","MEAN_ELEMENT_THEORY":"SGP4","EPOCH":"2021-09-27T22:00:01.999584","SEMIMAJOR_AXIS":"6925.287","LAUNCH_DATE":"2021-05-26","ARG_OF_PERICENTER":"74.8098","CLASSIFICATION_TYPE":"U","PERIAPSIS":"546.090","APOAPSIS":"548.213","SITE":"AFETR","TLE_LINE1":"1 48694U 21044BJ  21270.91668981 -.00027398  00000-0 -18265-2 0  9997","RA_OF_ASC_NODE":"176.0261","OBJECT_TYPE":"PAYLOAD","GP_ID":"185669767","MEAN_ANOMALY":"239.0597","REV_AT_EPOCH":"362","MEAN_MOTION_DDOT":"0.0000000000000","FILE":"3131463","CENTER_NAME":"EARTH","PERIOD":"95.591","COUNTRY_CODE":"US","ELEMENT_SET_NO":"999","OBJECT_ID":"2021-044BJ","INCLINATION":"53.0485","RCS_SIZE":"LARGE"},{"APOAPSIS":"548.307","PERIAPSIS":"546.161","CLASSIFICATION_TYPE":"U","SITE":"AFETR","TLE_LINE1":"1 48695U 21044BK  21270.91668981  .00000119  00000-0  26914-4 0  9990","OBJECT_TYPE":"PAYLOAD","RA_OF_ASC_NODE":"176.0085","GP_ID":"185669657","REV_AT_EPOCH":"361","MEAN_ANOMALY":"154.1055","MEAN_MOTION_DDOT":"0.0000000000000","FILE":"3131463","CENTER_NAME":"EARTH","COUNTRY_CODE":"US","PERIOD":"95.593","ELEMENT_SET_NO":"999","OBJECT_ID":"2021-044BK","INCLINATION":"53.0416","RCS_SIZE":"LARGE","MEAN_MOTION":"15.06393289","NORAD_CAT_ID":"48695","REF_FRAME":"TEME","EPHEMERIS_TYPE":"0","DECAY_DATE":null,"ECCENTRICITY":"0.00015490","TIME_SYSTEM":"UTC","OBJECT_NAME":"STARLINK-2616","MEAN_MOTION_DOT":"0.00000119","TLE_LINE2":"2 48695  53.0416 176.0085 0001549  64.7507 154.1055 15.06393289  3615","BSTAR":"0.00002691400000","MEAN_ELEMENT_THEORY":"SGP4","EPOCH":"2021-09-27T22:00:01.999584","SEMIMAJOR_AXIS":"6925.369","LAUNCH_DATE":"2021-05-26","ARG_OF_PERICENTER":"64.7507"},{"EPHEMERIS_TYPE":"0","ECCENTRICITY":"0.00023860","DECAY_DATE":null,"TIME_SYSTEM":"UTC","OBJECT_NAME":"STARLINK-2753","MEAN_MOTION_DOT":"-0.00006104","MEAN_MOTION":"15.06413187","NORAD_CAT_ID":"48696","REF_FRAME":"TEME","LAUNCH_DATE":"2021-05-26","ARG_OF_PERICENTER":"67.1448","TLE_LINE2":"2 48696  53.0675 181.7566 0002386  67.1448 292.9792 15.06413187 19369","BSTAR":"-0.00039103000000","MEAN_ELEMENT_THEORY":"SGP4","EPOCH":"2021-09-27T17:36:54.074016","SEMIMAJOR_AXIS":"6925.308","GP_ID":"185669120","APOAPSIS":"548.826","CLASSIFICATION_TYPE":"U","PERIAPSIS":"545.521","SITE":"AFETR","TLE_LINE1":"1 48696U 21044BL  21270.73395919 -.00006104  00000-0 -39103-3 0  9994","RA_OF_ASC_NODE":"181.7566","OBJECT_TYPE":"PAYLOAD","PERIOD":"95.591","COUNTRY_CODE":"US","OBJECT_ID":"2021-044BL","ELEMENT_SET_NO":"999","INCLINATION":"53.0675","RCS_SIZE":"LARGE","REV_AT_EPOCH":"1936","MEAN_ANOMALY":"292.9792","MEAN_MOTION_DDOT":"0.0000000000000","FILE":"3131463","CENTER_NAME":"EARTH"},{"GP_ID":"185669228","PERIAPSIS":"545.574","CLASSIFICATION_TYPE":"U","APOAPSIS":"548.839","SITE":"AFETR","OBJECT_TYPE":"PAYLOAD","TLE_LINE1":"1 48697U 21044BM  21270.76714292  .00001127  00000-0  94542-4 0  9994","RA_OF_ASC_NODE":"181.6776","COUNTRY_CODE":"US","PERIOD":"95.592","OBJECT_ID":"2021-044BM","ELEMENT_SET_NO":"999","INCLINATION":"53.0559","RCS_SIZE":"LARGE","MEAN_ANOMALY":"301.9342","REV_AT_EPOCH":"1936","MEAN_MOTION_DDOT":"0.0000000000000","FILE":"3131463","CENTER_NAME":"EARTH","ECCENTRICITY":"0.00023570","DECAY_DATE":null,"TIME_SYSTEM":"UTC","EPHEMERIS_TYPE":"0","OBJECT_NAME":"STARLINK-2715","MEAN_MOTION_DOT":"0.00001127","REF_FRAME":"TEME","NORAD_CAT_ID":"48697","MEAN_MOTION":"15.06402243","LAUNCH_DATE":"2021-05-26","ARG_OF_PERICENTER":"58.1877","TLE_LINE2":"2 48697  53.0559 181.6776 0002357  58.1877 301.9342 15.06402243 19360","BSTAR":"0.00009454200000","MEAN_ELEMENT_THEORY":"SGP4","EPOCH":"2021-09-27T18:24:41.148288","SEMIMAJOR_AXIS":"6925.342"},{"SITE":"AFETR","OBJECT_TYPE":"PAYLOAD","TLE_LINE1":"1 48879U 21059A   21270.91668981 -.00040490  00000-0 -21165-2 0  9999","RA_OF_ASC_NODE":"38.8061","CLASSIFICATION_TYPE":"U","PERIAPSIS":"512.154","APOAPSIS":"523.776","GP_ID":"185638881","FILE":"3131121","CENTER_NAME":"EARTH","REV_AT_EPOCH":"1474","MEAN_ANOMALY":"116.4623","MEAN_MOTION_DDOT":"0.0000000000000","INCLINATION":"97.5211","RCS_SIZE":"LARGE","COUNTRY_CODE":"US","PERIOD":"94.987","OBJECT_ID":"2021-059A","ELEMENT_SET_NO":"999","REF_FRAME":"TEME","NORAD_CAT_ID":"48879","MEAN_MOTION":"15.15993834","MEAN_MOTION_DOT":"-0.00040490","TIME_SYSTEM":"UTC","DECAY_DATE":null,"ECCENTRICITY":"0.00084260","EPHEMERIS_TYPE":"0","OBJECT_NAME":"STARLINK-3003","EPOCH":"2021-09-27T22:00:01.999584","SEMIMAJOR_AXIS":"6896.100","TLE_LINE2":"2 48879  97.5211  38.8061 0008426 337.2878 116.4623 15.15993834 14744","BSTAR":"-0.00211650000000","MEAN_ELEMENT_THEORY":"SGP4","LAUNCH_DATE":"2021-06-30","ARG_OF_PERICENTER":"337.2878"},{"TLE_LINE1":"1 48880U 21059B   21270.91668981 -.00029657  00000-0 -15408-2 0  9996","OBJECT_TYPE":"PAYLOAD","RA_OF_ASC_NODE":"38.8055","SITE":"AFETR","APOAPSIS":"523.656","CLASSIFICATION_TYPE":"U","PERIAPSIS":"511.438","GP_ID":"185639129","CENTER_NAME":"EARTH","FILE":"3131136","MEAN_MOTION_DDOT":"0.0000000000000","MEAN_ANOMALY":"110.0168","REV_AT_EPOCH":"1474","RCS_SIZE":"LARGE","INCLINATION":"97.5212","ELEMENT_SET_NO":"999","OBJECT_ID":"2021-059B","COUNTRY_CODE":"US","PERIOD":"94.979","MEAN_MOTION":"15.16131666","NORAD_CAT_ID":"48880","REF_FRAME":"TEME","MEAN_MOTION_DOT":"-0.00029657","OBJECT_NAME":"STARLINK-3004","EPHEMERIS_TYPE":"0","TIME_SYSTEM":"UTC","DECAY_DATE":null,"ECCENTRICITY":"0.00088590","SEMIMAJOR_AXIS":"6895.682","EPOCH":"2021-09-27T22:00:01.999584","MEAN_ELEMENT_THEORY":"SGP4","TLE_LINE2":"2 48880  97.5212  38.8055 0008859 341.9782 110.0168 15.16131666 14748","BSTAR":"-0.00154080000000","ARG_OF_PERICENTER":"341.9782","LAUNCH_DATE":"2021-06-30"},{"NORAD_CAT_ID":"48881","MEAN_MOTION":"15.15993252","REF_FRAME":"TEME","OBJECT_NAME":"STARLINK-3005","EPHEMERIS_TYPE":"0","DECAY_DATE":null,"ECCENTRICITY":"0.00026780","TIME_SYSTEM":"UTC","MEAN_MOTION_DOT":"-0.00029893","TLE_LINE2":"2 48881  97.5219  38.8178 0002678  66.0796  39.3071 15.15993252 14747","MEAN_ELEMENT_THEORY":"SGP4","BSTAR":"-0.00156080000000","SEMIMAJOR_AXIS":"6896.102","EPOCH":"2021-09-27T22:00:01.999584","ARG_OF_PERICENTER":"66.0796","LAUNCH_DATE":"2021-06-30","APOAPSIS":"519.814","PERIAPSIS":"516.120","CLASSIFICATION_TYPE":"U","TLE_LINE1":"1 48881U 21059C   21270.91668981 -.00029893  00000-0 -15608-2 0  9991","RA_OF_ASC_NODE":"38.8178","OBJECT_TYPE":"PAYLOAD","SITE":"AFETR","GP_ID":"185638831","MEAN_MOTION_DDOT":"0.0000000000000","MEAN_ANOMALY":"39.3071","REV_AT_EPOCH":"1474","CENTER_NAME":"EARTH","FILE":"3131143","OBJECT_ID":"2021-059C","ELEMENT_SET_NO":"999","PERIOD":"94.987","COUNTRY_CODE":"US","RCS_SIZE":"LARGE","INCLINATION":"97.5219"}];
